{
  "type": "FeatureCollection",
  "features": [
    {
      "type": "Feature",
      "properties": {
        "norad_id": 38709,
        "name": "EXACTVIEW-1 (ADS-1B)",
        "group": "resource",
        "lat": -35.709248653394525,
        "lon": -92.4848183951104,
        "alt_km": 821.0640007198253,
        "timestamp": "2025-12-11T15:53:39.199041+00:00",
        "meta_object_name": "EXACTVIEW-1 (ADS-1B)",
        "meta_object_id": "2012-039C",
        "meta_epoch": "2025-12-11T06:27:22.828608",
        "meta_mean_motion": 14.24907352,
        "meta_eccentricity": 0.0010752,
        "meta_inclination": 98.9635,
        "meta_ra_of_asc_node": 93.6282,
        "meta_arg_of_pericenter": 358.4749,
        "meta_mean_anomaly": 1.6395,
        "meta_ephemeris_type": 0,
        "meta_classification_type": "U",
        "meta_norad_cat_id": 38709,
        "meta_element_set_no": 999,
        "meta_rev_at_epoch": 69594,
        "meta_bstar": 0.00014815363,
        "meta_mean_motion_dot": 3e-06,
        "meta_mean_motion_ddot": 0,
        "tle_line1": "1 38709U 12039C   25345.26901422  .00000300  00000+0  14815-3 0  9991",
        "tle_line2": "2 38709  98.9635  93.6282 0010752 358.4749   1.6395 14.24907352695948"
      },
      "geometry": {
        "type": "Point",
        "coordinates": [
          -92.4848183951104,
          -35.709248653394525
        ]
      }
    },
    {
      "type": "Feature",
      "properties": {
        "norad_id": 38755,
        "name": "SPOT 6",
        "group": "resource",
        "lat": 64.611724868636,
        "lon": -111.94282003694302,
        "alt_km": 690.659045279669,
        "timestamp": "2025-12-11T15:53:39.199051+00:00",
        "meta_object_name": "SPOT 6",
        "meta_object_id": "2012-047A",
        "meta_epoch": "2025-12-11T07:08:28.255200",
        "meta_mean_motion": 14.58600492,
        "meta_eccentricity": 0.0001085,
        "meta_inclination": 98.1569,
        "meta_ra_of_asc_node": 50.1082,
        "meta_arg_of_pericenter": 96.1717,
        "meta_mean_anomaly": 263.9606,
        "meta_ephemeris_type": 0,
        "meta_classification_type": "U",
        "meta_norad_cat_id": 38755,
        "meta_element_set_no": 999,
        "meta_rev_at_epoch": 70566,
        "meta_bstar": 0.00011295339,
        "meta_mean_motion_dot": 4.8e-06,
        "meta_mean_motion_ddot": 0,
        "tle_line1": "1 38755U 12047A   25345.29754925  .00000480  00000+0  11295-3 0  9996",
        "tle_line2": "2 38755  98.1569  50.1082 0001085  96.1717 263.9606 14.58600492705664"
      },
      "geometry": {
        "type": "Point",
        "coordinates": [
          -111.94282003694302,
          64.611724868636
        ]
      }
    },
    {
      "type": "Feature",
      "properties": {
        "norad_id": 39019,
        "name": "PLEIADES 1B",
        "group": "resource",
        "lat": 12.568844101216479,
        "lon": 56.49295867516225,
        "alt_km": 698.7422870972814,
        "timestamp": "2025-12-11T15:53:39.199062+00:00",
        "meta_object_name": "PLEIADES 1B",
        "meta_object_id": "2012-068A",
        "meta_epoch": "2025-12-11T05:57:26.980416",
        "meta_mean_motion": 14.58550075,
        "meta_eccentricity": 0.00012107,
        "meta_inclination": 98.179,
        "meta_ra_of_asc_node": 57.9231,
        "meta_arg_of_pericenter": 81.8467,
        "meta_mean_anomaly": 278.287,
        "meta_ephemeris_type": 0,
        "meta_classification_type": "U",
        "meta_norad_cat_id": 39019,
        "meta_element_set_no": 999,
        "meta_rev_at_epoch": 69345,
        "meta_bstar": 0.00011774947,
        "meta_mean_motion_dot": 5.02e-06,
        "meta_mean_motion_ddot": 0,
        "tle_line1": "1 39019U 12068A   25345.24822894  .00000502  00000+0  11775-3 0  9997",
        "tle_line2": "2 39019  98.1790  57.9231 0001210  81.8467 278.2870 14.58550075693454"
      },
      "geometry": {
        "type": "Point",
        "coordinates": [
          56.49295867516225,
          12.568844101216479
        ]
      }
    },
    {
      "type": "Feature",
      "properties": {
        "norad_id": 39030,
        "name": "GOKTURK 2",
        "group": "resource",
        "lat": 16.345307135038166,
        "lon": 9.63930959002941,
        "alt_km": 644.600822753182,
        "timestamp": "2025-12-11T15:53:39.199072+00:00",
        "meta_object_name": "GOKTURK 2",
        "meta_object_id": "2012-073A",
        "meta_epoch": "2025-12-11T07:01:01.564608",
        "meta_mean_motion": 14.75286827,
        "meta_eccentricity": 9.712e-05,
        "meta_inclination": 97.6893,
        "meta_ra_of_asc_node": 187.0169,
        "meta_arg_of_pericenter": 101.2715,
        "meta_mean_anomaly": 258.8604,
        "meta_ephemeris_type": 0,
        "meta_classification_type": "U",
        "meta_norad_cat_id": 39030,
        "meta_element_set_no": 999,
        "meta_rev_at_epoch": 69680,
        "meta_bstar": 0.00010841241,
        "meta_mean_motion_dot": 6.87e-06,
        "meta_mean_motion_ddot": 0,
        "tle_line1": "1 39030U 12073A   25345.29237922  .00000687  00000+0  10841-3 0  9990",
        "tle_line2": "2 39030  97.6893 187.0169 0000971 101.2715 258.8604 14.75286827696807"
      },
      "geometry": {
        "type": "Point",
        "coordinates": [
          9.63930959002941,
          16.345307135038166
        ]
      }
    },
    {
      "type": "Feature",
      "properties": {
        "norad_id": 39084,
        "name": "LANDSAT 8",
        "group": "resource",
        "lat": -8.47785758748728,
        "lon": -127.4811091082362,
        "alt_km": 706.6931354766994,
        "timestamp": "2025-12-11T15:53:39.199083+00:00",
        "meta_object_name": "LANDSAT 8",
        "meta_object_id": "2013-008A",
        "meta_epoch": "2025-12-11T05:08:37.576320",
        "meta_mean_motion": 14.57111504,
        "meta_eccentricity": 0.00010972,
        "meta_inclination": 98.2074,
        "meta_ra_of_asc_node": 53.3103,
        "meta_arg_of_pericenter": 87.7573,
        "meta_mean_anomaly": 272.3751,
        "meta_ephemeris_type": 0,
        "meta_classification_type": "U",
        "meta_norad_cat_id": 39084,
        "meta_element_set_no": 999,
        "meta_rev_at_epoch": 67052,
        "meta_bstar": 0.00015056654,
        "meta_mean_motion_dot": 6.33e-06,
        "meta_mean_motion_ddot": 0,
        "tle_line1": "1 39084U 13008A   25345.21432380  .00000633  00000+0  15057-3 0  9990",
        "tle_line2": "2 39084  98.2074  53.3103 0001097  87.7573 272.3751 14.57111504670521"
      },
      "geometry": {
        "type": "Point",
        "coordinates": [
          -127.4811091082362,
          -8.47785758748728
        ]
      }
    },
    {
      "type": "Feature",
      "properties": {
        "norad_id": 39086,
        "name": "SARAL",
        "group": "resource",
        "lat": -81.30749747654521,
        "lon": -90.1390819453603,
        "alt_km": 791.7571772445881,
        "timestamp": "2025-12-11T15:53:39.199100+00:00",
        "meta_object_name": "SARAL",
        "meta_object_id": "2013-009A",
        "meta_epoch": "2025-12-11T06:15:53.497440",
        "meta_mean_motion": 14.32756358,
        "meta_eccentricity": 0.00028414,
        "meta_inclination": 98.5503,
        "meta_ra_of_asc_node": 169.2108,
        "meta_arg_of_pericenter": 111.365,
        "meta_mean_anomaly": 248.7838,
        "meta_ephemeris_type": 0,
        "meta_classification_type": "U",
        "meta_norad_cat_id": 39086,
        "meta_element_set_no": 999,
        "meta_rev_at_epoch": 66869,
        "meta_bstar": 0.00010178091,
        "meta_mean_motion_dot": 2.34e-06,
        "meta_mean_motion_ddot": 0,
        "tle_line1": "1 39086U 13009A   25345.26103585  .00000234  00000+0  10178-3 0  9996",
        "tle_line2": "2 39086  98.5503 169.2108 0002841 111.3650 248.7838 14.32756358668696"
      },
      "geometry": {
        "type": "Point",
        "coordinates": [
          -90.1390819453603,
          -81.30749747654521
        ]
      }
    },
    {
      "type": "Feature",
      "properties": {
        "norad_id": 39150,
        "name": "GAOFEN-1",
        "group": "resource",
        "lat": -56.01441849561949,
        "lon": -135.59625267812783,
        "alt_km": 647.4662464891653,
        "timestamp": "2025-12-11T15:53:39.199111+00:00",
        "meta_object_name": "GAOFEN-1",
        "meta_object_id": "2013-018A",
        "meta_epoch": "2025-12-11T06:41:39.849216",
        "meta_mean_motion": 14.76528041,
        "meta_eccentricity": 0.00181008,
        "meta_inclination": 97.9323,
        "meta_ra_of_asc_node": 55.9636,
        "meta_arg_of_pericenter": 147.4749,
        "meta_mean_anomaly": 212.758,
        "meta_ephemeris_type": 0,
        "meta_classification_type": "U",
        "meta_norad_cat_id": 39150,
        "meta_element_set_no": 999,
        "meta_rev_at_epoch": 68051,
        "meta_bstar": 0.0001198759,
        "meta_mean_motion_dot": 7.87e-06,
        "meta_mean_motion_ddot": 0,
        "tle_line1": "1 39150U 13018A   25345.27893344  .00000787  00000+0  11988-3 0  9991",
        "tle_line2": "2 39150  97.9323  55.9636 0018100 147.4749 212.7580 14.76528041680516"
      },
      "geometry": {
        "type": "Point",
        "coordinates": [
          -135.59625267812783,
          -56.01441849561949
        ]
      }
    }
  ]
}